STARLINK-1470           
1 45772U 20038AU  26068.60892913  .00054678  00000+0  19687-2 0  9990
2 45772  53.0480 174.6971 0002444  12.8687 347.2373 15.28074860317065
STARLINK-31198          
1 58867U 24019Q   26068.48751045  .00000092  00000+0  12875-4 0  9993
2 58867  43.0012 249.8639 0001199 269.7146  90.3568 15.27578083119033
